{
  "type": "FeatureCollection",
  "features": [
    {
      "type": "Feature",
      "properties": {
        "norad_id": 30264,
        "name": "FENGYUN 1C DEB",
        "group": "fengyun-1c-debris",
        "lat": -43.97508875569816,
        "lon": 43.80416792660793,
        "alt_km": 797.7953556965767,
        "timestamp": "2025-12-05T20:43:02.330299+00:00",
        "meta_object_name": "FENGYUN 1C DEB",
        "meta_object_id": "1999-025XZ",
        "meta_epoch": "2025-12-05T02:26:58.769376",
        "meta_mean_motion": 14.07591467,
        "meta_eccentricity": 0.01066507,
        "meta_inclination": 98.9706,
        "meta_ra_of_asc_node": 34.282,
        "meta_arg_of_pericenter": 308.9305,
        "meta_mean_anomaly": 111.4263,
        "meta_ephemeris_type": 0,
        "meta_classification_type": "U",
        "meta_norad_cat_id": 30264,
        "meta_element_set_no": 999,
        "meta_rev_at_epoch": 96450,
        "meta_bstar": 0.0023557205,
        "meta_mean_motion_dot": 4.144e-05,
        "meta_mean_motion_ddot": 0,
        "tle_line1": "1 30264U 99025XZ  25339.10206909  .00004144  00000+0  23557-2 0  9995",
        "tle_line2": "2 30264  98.9706  34.2820 0106650 308.9305 111.4263 14.07591467964507"
      },
      "geometry": {
        "type": "Point",
        "coordinates": [
          43.80416792660793,
          -43.97508875569816
        ]
      }
    },
    {
      "type": "Feature",
      "properties": {
        "norad_id": 30265,
        "name": "FENGYUN 1C DEB",
        "group": "fengyun-1c-debris",
        "lat": 22.272031400213663,
        "lon": -87.72254366828285,
        "alt_km": 708.776536775239,
        "timestamp": "2025-12-05T20:43:02.330309+00:00",
        "meta_object_name": "FENGYUN 1C DEB",
        "meta_object_id": "1999-025YA",
        "meta_epoch": "2025-12-02T06:30:17.309088",
        "meta_mean_motion": 14.58254763,
        "meta_eccentricity": 0.0028484,
        "meta_inclination": 98.6642,
        "meta_ra_of_asc_node": 84.9553,
        "meta_arg_of_pericenter": 46.6011,
        "meta_mean_anomaly": 342.9342,
        "meta_ephemeris_type": 0,
        "meta_classification_type": "U",
        "meta_norad_cat_id": 30265,
        "meta_element_set_no": 999,
        "meta_rev_at_epoch": 98249,
        "meta_bstar": 0.0027427,
        "meta_mean_motion_dot": 0.00012711,
        "meta_mean_motion_ddot": 0,
        "tle_line1": "1 30265U 99025YA  25336.27103367  .00012711  00000+0  27427-2 0  9994",
        "tle_line2": "2 30265  98.6642  84.9553 0028484  46.6011 342.9342 14.58254763982495"
      },
      "geometry": {
        "type": "Point",
        "coordinates": [
          -87.72254366828285,
          22.272031400213663
        ]
      }
    },
    {
      "type": "Feature",
      "properties": {
        "norad_id": 30266,
        "name": "FENGYUN 1C DEB",
        "group": "fengyun-1c-debris",
        "lat": 13.903734438014805,
        "lon": -133.7579835488329,
        "alt_km": 832.4579880408792,
        "timestamp": "2025-12-05T20:43:02.330319+00:00",
        "meta_object_name": "FENGYUN 1C DEB",
        "meta_object_id": "1999-025YB",
        "meta_epoch": "2025-12-04T15:48:07.146720",
        "meta_mean_motion": 14.15022862,
        "meta_eccentricity": 0.0083379,
        "meta_inclination": 99.0434,
        "meta_ra_of_asc_node": 42.7618,
        "meta_arg_of_pericenter": 88.9352,
        "meta_mean_anomaly": 61.932,
        "meta_ephemeris_type": 0,
        "meta_classification_type": "U",
        "meta_norad_cat_id": 30266,
        "meta_element_set_no": 999,
        "meta_rev_at_epoch": 96675,
        "meta_bstar": 0.0027758,
        "meta_mean_motion_dot": 5.517e-05,
        "meta_mean_motion_ddot": 0,
        "tle_line1": "1 30266U 99025YB  25338.65841605  .00005517  00000+0  27758-2 0  9996",
        "tle_line2": "2 30266  99.0434  42.7618 0083379  88.9352  61.9320 14.15022862966756"
      },
      "geometry": {
        "type": "Point",
        "coordinates": [
          -133.7579835488329,
          13.903734438014805
        ]
      }
    },
    {
      "type": "Feature",
      "properties": {
        "norad_id": 30267,
        "name": "FENGYUN 1C DEB",
        "group": "fengyun-1c-debris",
        "lat": -47.53079865081945,
        "lon": -138.81527402916342,
        "alt_km": 785.4863505099311,
        "timestamp": "2025-12-05T20:43:02.330329+00:00",
        "meta_object_name": "FENGYUN 1C DEB",
        "meta_object_id": "1999-025YC",
        "meta_epoch": "2025-12-05T04:27:41.486112",
        "meta_mean_motion": 14.2352541,
        "meta_eccentricity": 0.00585386,
        "meta_inclination": 98.8505,
        "meta_ra_of_asc_node": 50.3042,
        "meta_arg_of_pericenter": 264.8328,
        "meta_mean_anomaly": 94.6167,
        "meta_ephemeris_type": 0,
        "meta_classification_type": "U",
        "meta_norad_cat_id": 30267,
        "meta_element_set_no": 999,
        "meta_rev_at_epoch": 97187,
        "meta_bstar": 0.0032656382,
        "meta_mean_motion_dot": 7.523e-05,
        "meta_mean_motion_ddot": 0,
        "tle_line1": "1 30267U 99025YC  25339.18589683  .00007523  00000+0  32656-2 0  9993",
        "tle_line2": "2 30267  98.8505  50.3042 0058538 264.8328  94.6167 14.23525410971873"
      },
      "geometry": {
        "type": "Point",
        "coordinates": [
          -138.81527402916342,
          -47.53079865081945
        ]
      }
    },
    {
      "type": "Feature",
      "properties": {
        "norad_id": 30270,
        "name": "FENGYUN 1C DEB",
        "group": "fengyun-1c-debris",
        "lat": 17.81237409743354,
        "lon": 176.61773872923428,
        "alt_km": 850.4709618276402,
        "timestamp": "2025-12-05T20:43:02.330340+00:00",
        "meta_object_name": "FENGYUN 1C DEB",
        "meta_object_id": "1999-025YF",
        "meta_epoch": "2025-12-05T06:37:52.180032",
        "meta_mean_motion": 14.11265861,
        "meta_eccentricity": 0.00070471,
        "meta_inclination": 98.7026,
        "meta_ra_of_asc_node": 353.2281,
        "meta_arg_of_pericenter": 179.5533,
        "meta_mean_anomaly": 242.1041,
        "meta_ephemeris_type": 0,
        "meta_classification_type": "U",
        "meta_norad_cat_id": 30270,
        "meta_element_set_no": 999,
        "meta_rev_at_epoch": 97256,
        "meta_bstar": 0.00023221315,
        "meta_mean_motion_dot": 3.77e-06,
        "meta_mean_motion_ddot": 0,
        "tle_line1": "1 30270U 99025YF  25339.27629838  .00000377  00000+0  23221-3 0  9993",
        "tle_line2": "2 30270  98.7026 353.2281 0007047 179.5533 242.1041 14.11265861972569"
      },
      "geometry": {
        "type": "Point",
        "coordinates": [
          176.61773872923428,
          17.81237409743354
        ]
      }
    },
    {
      "type": "Feature",
      "properties": {
        "norad_id": 30272,
        "name": "FENGYUN 1C DEB",
        "group": "fengyun-1c-debris",
        "lat": -50.36937371323706,
        "lon": 58.48779007151012,
        "alt_km": 887.1219898276613,
        "timestamp": "2025-12-05T20:43:02.330350+00:00",
        "meta_object_name": "FENGYUN 1C DEB",
        "meta_object_id": "1999-025YH",
        "meta_epoch": "2025-12-05T03:59:10.946688",
        "meta_mean_motion": 14.146597,
        "meta_eccentricity": 0.00512487,
        "meta_inclination": 98.902,
        "meta_ra_of_asc_node": 46.8839,
        "meta_arg_of_pericenter": 124.9411,
        "meta_mean_anomaly": 235.6592,
        "meta_ephemeris_type": 0,
        "meta_classification_type": "U",
        "meta_norad_cat_id": 30272,
        "meta_element_set_no": 999,
        "meta_rev_at_epoch": 96749,
        "meta_bstar": 0.0026059437,
        "meta_mean_motion_dot": 5.034e-05,
        "meta_mean_motion_ddot": 0,
        "tle_line1": "1 30272U 99025YH  25339.16609892  .00005034  00000+0  26059-2 0  9997",
        "tle_line2": "2 30272  98.9020  46.8839 0051248 124.9411 235.6592 14.14659700967498"
      },
      "geometry": {
        "type": "Point",
        "coordinates": [
          58.48779007151012,
          -50.36937371323706
        ]
      }
    },
    {
      "type": "Feature",
      "properties": {
        "norad_id": 30273,
        "name": "FENGYUN 1C DEB",
        "group": "fengyun-1c-debris",
        "lat": -42.69268612855096,
        "lon": 166.37236809314953,
        "alt_km": 860.3125072135635,
        "timestamp": "2025-12-05T20:43:02.330360+00:00",
        "meta_object_name": "FENGYUN 1C DEB",
        "meta_object_id": "1999-025YJ",
        "meta_epoch": "2025-12-05T07:44:30.647616",
        "meta_mean_motion": 14.02642437,
        "meta_eccentricity": 0.00605484,
        "meta_inclination": 98.8411,
        "meta_ra_of_asc_node": 354.1029,
        "meta_arg_of_pericenter": 270.3445,
        "meta_mean_anomaly": 104.9058,
        "meta_ephemeris_type": 0,
        "meta_classification_type": "U",
        "meta_norad_cat_id": 30273,
        "meta_element_set_no": 999,
        "meta_rev_at_epoch": 96425,
        "meta_bstar": 0.00093832314,
        "meta_mean_motion_dot": 1.428e-05,
        "meta_mean_motion_ddot": 0,
        "tle_line1": "1 30273U 99025YJ  25339.32257694  .00001428  00000+0  93832-3 0  9992",
        "tle_line2": "2 30273  98.8411 354.1029 0060548 270.3445 104.9058 14.02642437964256"
      },
      "geometry": {
        "type": "Point",
        "coordinates": [
          166.37236809314953,
          -42.69268612855096
        ]
      }
    }
  ]
}